{
  "type": "FeatureCollection",
  "features": [
    {
      "type": "Feature",
      "properties": {
        "norad_id": 19071,
        "name": "OSCAR 32",
        "group": "nnss",
        "lat": 46.572553172568334,
        "lon": 16.13963165265702,
        "alt_km": 1228.2142649375646,
        "timestamp": "2025-12-11T07:02:23.998872+00:00",
        "meta_object_name": "OSCAR 32",
        "meta_object_id": "1988-033B",
        "meta_epoch": "2025-12-10T20:49:08.698656",
        "meta_mean_motion": 13.27953597,
        "meta_eccentricity": 0.01882087,
        "meta_inclination": 90.3218,
        "meta_ra_of_asc_node": 16.4665,
        "meta_arg_of_pericenter": 171.99,
        "meta_mean_anomaly": 1.7043,
        "meta_ephemeris_type": 0,
        "meta_classification_type": "U",
        "meta_norad_cat_id": 19071,
        "meta_element_set_no": 999,
        "meta_rev_at_epoch": 82240,
        "meta_bstar": 0.00014237591,
        "meta_mean_motion_dot": 8e-07,
        "meta_mean_motion_ddot": 0,
        "tle_line1": "1 19071U 88033B   25344.86746179  .00000080  00000+0  14238-3 0  9994",
        "tle_line2": "2 19071  90.3218  16.4665 0188208 171.9900   1.7043 13.27953597822407"
      },
      "geometry": {
        "type": "Point",
        "coordinates": [
          16.13963165265702,
          46.572553172568334
        ]
      }
    },
    {
      "type": "Feature",
      "properties": {
        "norad_id": 19223,
        "name": "NOVA 2",
        "group": "nnss",
        "lat": -88.5699488800617,
        "lon": 77.76128152768001,
        "alt_km": 1188.667714839914,
        "timestamp": "2025-12-11T07:02:23.998882+00:00",
        "meta_object_name": "NOVA 2",
        "meta_object_id": "1988-052A",
        "meta_epoch": "2025-12-10T17:44:33.779904",
        "meta_mean_motion": 13.22935704,
        "meta_eccentricity": 0.0030761,
        "meta_inclination": 89.9872,
        "meta_ra_of_asc_node": 78.275,
        "meta_arg_of_pericenter": 22.3603,
        "meta_mean_anomaly": 132.2155,
        "meta_ephemeris_type": 0,
        "meta_classification_type": "U",
        "meta_norad_cat_id": 19223,
        "meta_element_set_no": 999,
        "meta_rev_at_epoch": 80921,
        "meta_bstar": 0.00020145251,
        "meta_mean_motion_dot": 9.4e-07,
        "meta_mean_motion_ddot": 0,
        "tle_line1": "1 19223U 88052A   25344.73927986  .00000094  00000+0  20145-3 0  9996",
        "tle_line2": "2 19223  89.9872  78.2750 0030761  22.3603 132.2155 13.22935704809219"
      },
      "geometry": {
        "type": "Point",
        "coordinates": [
          77.76128152768001,
          -88.5699488800617
        ]
      }
    },
    {
      "type": "Feature",
      "properties": {
        "norad_id": 19419,
        "name": "OSCAR 25",
        "group": "nnss",
        "lat": -65.55215719540203,
        "lon": -159.83720782402762,
        "alt_km": 1036.482457560579,
        "timestamp": "2025-12-11T07:02:23.998892+00:00",
        "meta_object_name": "OSCAR 25",
        "meta_object_id": "1988-074A",
        "meta_epoch": "2025-12-10T19:57:35.303040",
        "meta_mean_motion": 13.42622819,
        "meta_eccentricity": 0.00943725,
        "meta_inclination": 90.0349,
        "meta_ra_of_asc_node": 20.238,
        "meta_arg_of_pericenter": 251.3833,
        "meta_mean_anomaly": 284.042,
        "meta_ephemeris_type": 0,
        "meta_classification_type": "U",
        "meta_norad_cat_id": 19419,
        "meta_element_set_no": 999,
        "meta_rev_at_epoch": 82614,
        "meta_bstar": 0.00022111673,
        "meta_mean_motion_dot": 1.37e-06,
        "meta_mean_motion_ddot": 0,
        "tle_line1": "1 19419U 88074A   25344.83165860  .00000137  00000+0  22112-3 0  9997",
        "tle_line2": "2 19419  90.0349  20.2380 0094372 251.3833 284.0420 13.42622819826145"
      },
      "geometry": {
        "type": "Point",
        "coordinates": [
          -159.83720782402762,
          -65.55215719540203
        ]
      }
    },
    {
      "type": "Feature",
      "properties": {
        "norad_id": 19420,
        "name": "OSCAR 31",
        "group": "nnss",
        "lat": 51.336577637102096,
        "lon": -159.36506324223674,
        "alt_km": 1124.3530950163986,
        "timestamp": "2025-12-11T07:02:23.998918+00:00",
        "meta_object_name": "OSCAR 31",
        "meta_object_id": "1988-074B",
        "meta_epoch": "2025-12-10T20:31:52.362624",
        "meta_mean_motion": 13.42584166,
        "meta_eccentricity": 0.00926505,
        "meta_inclination": 90.0365,
        "meta_ra_of_asc_node": 20.5877,
        "meta_arg_of_pericenter": 245.4091,
        "meta_mean_anomaly": 289.0588,
        "meta_ephemeris_type": 0,
        "meta_classification_type": "U",
        "meta_norad_cat_id": 19420,
        "meta_element_set_no": 999,
        "meta_rev_at_epoch": 82625,
        "meta_bstar": 0.00017187176,
        "meta_mean_motion_dot": 1.08e-06,
        "meta_mean_motion_ddot": 0,
        "tle_line1": "1 19420U 88074B   25344.85546716  .00000108  00000+0  17187-3 0  9998",
        "tle_line2": "2 19420  90.0365  20.5877 0092650 245.4091 289.0588 13.42584166826250"
      },
      "geometry": {
        "type": "Point",
        "coordinates": [
          -159.36506324223674,
          51.336577637102096
        ]
      }
    }
  ]
}